BRO-15                  
1 60553U 24149CP  26068.78650368  .00000816  00000+0  78021-4 0  9990
2 60553  97.6864 146.0377 0009320  65.4416 294.7775 14.95892184 85149
STARLINK-34089          
1 64039U 25102T   26068.53263537  .00005056  00000+0  43099-3 0  9991
2 64039  70.0009 115.0499 0003357 269.0901  90.9874 14.98352565 45929
